2017-071N               
1 43049U 17071N   17345.94756635  .00002670  00000-0  81233-4 0  9997
2 43049  51.6393 232.7994 0002376 342.0506  18.0393 15.37763477   759
